STARLINK-1559           
1 46077U 20055BC  26068.23360559  .00042685  00000+0  14779-2 0  9995
2 46077  53.0254  76.0659 0004229  33.9710 326.1559 15.29461733309518
STARLINK-34821          
1 65199U 25176B   26068.50656794  .00026046  00000+0  88866-3 0  9991
2 65199  53.1590 153.4898 0001093  99.2619 260.8506 15.30192398 33039
